{
  "type": "FeatureCollection",
  "features": [
    {
      "type": "Feature",
      "properties": {
        "norad_id": 66484,
        "name": "STARLINK-35371",
        "group": "last-30-days",
        "lat": 35.92750106880192,
        "lon": -98.60813129191042,
        "alt_km": 367.78606649915673,
        "timestamp": "2025-12-02T06:27:51.801324+00:00",
        "meta_object_name": "STARLINK-35371",
        "meta_object_id": "2025-262AE",
        "meta_epoch": "2025-12-01T20:00:01.999008",
        "meta_mean_motion": 15.67294665,
        "meta_eccentricity": 0.0001345,
        "meta_inclination": 42.9994,
        "meta_ra_of_asc_node": 135.0475,
        "meta_arg_of_pericenter": 279.7193,
        "meta_mean_anomaly": 259.4248,
        "meta_ephemeris_type": 0,
        "meta_classification_type": "U",
        "meta_norad_cat_id": 66484,
        "meta_element_set_no": 999,
        "meta_rev_at_epoch": 388,
        "meta_bstar": -0.020998,
        "meta_mean_motion_dot": -0.02042676,
        "meta_mean_motion_ddot": 0,
        "tle_line1": "1 66484U 25262AE  25335.83335647 -.02042676  00000+0 -20998-1 0  9999",
        "tle_line2": "2 66484  42.9994 135.0475 0001345 279.7193 259.4248 15.67294665  3887"
      },
      "geometry": {
        "type": "Point",
        "coordinates": [
          -98.60813129191042,
          35.92750106880192
        ]
      }
    },
    {
      "type": "Feature",
      "properties": {
        "norad_id": 66485,
        "name": "STARLINK-34774",
        "group": "last-30-days",
        "lat": 11.377446655600897,
        "lon": -5.371981169578353,
        "alt_km": 343.105490747992,
        "timestamp": "2025-12-02T06:27:51.801336+00:00",
        "meta_object_name": "STARLINK-34774",
        "meta_object_id": "2025-263A",
        "meta_epoch": "2025-12-01T20:00:01.999008",
        "meta_mean_motion": 15.7505521,
        "meta_eccentricity": 0.0002048,
        "meta_inclination": 42.9993,
        "meta_ra_of_asc_node": 189.7452,
        "meta_arg_of_pericenter": 267.9321,
        "meta_mean_anomaly": 300.0065,
        "meta_ephemeris_type": 0,
        "meta_classification_type": "U",
        "meta_norad_cat_id": 66485,
        "meta_element_set_no": 999,
        "meta_rev_at_epoch": 388,
        "meta_bstar": -0.00010424,
        "meta_mean_motion_dot": -0.00016471,
        "meta_mean_motion_ddot": 0,
        "tle_line1": "1 66485U 25263A   25335.83335647 -.00016471  00000+0 -10424-3 0  9998",
        "tle_line2": "2 66485  42.9993 189.7452 0002048 267.9321 300.0065 15.75055210  3881"
      },
      "geometry": {
        "type": "Point",
        "coordinates": [
          -5.371981169578353,
          11.377446655600897
        ]
      }
    },
    {
      "type": "Feature",
      "properties": {
        "norad_id": 66486,
        "name": "STARLINK-34844",
        "group": "last-30-days",
        "lat": 10.09563108058289,
        "lon": -3.9221728713997175,
        "alt_km": 343.3780434222499,
        "timestamp": "2025-12-02T06:27:51.801348+00:00",
        "meta_object_name": "STARLINK-34844",
        "meta_object_id": "2025-263B",
        "meta_epoch": "2025-12-01T20:00:01.999008",
        "meta_mean_motion": 15.75013178,
        "meta_eccentricity": 0.0001912,
        "meta_inclination": 42.9991,
        "meta_ra_of_asc_node": 189.7393,
        "meta_arg_of_pericenter": 270.6367,
        "meta_mean_anomaly": 299.2787,
        "meta_ephemeris_type": 0,
        "meta_classification_type": "U",
        "meta_norad_cat_id": 66486,
        "meta_element_set_no": 999,
        "meta_rev_at_epoch": 383,
        "meta_bstar": -3.606e-05,
        "meta_mean_motion_dot": -6.007e-05,
        "meta_mean_motion_ddot": 0,
        "tle_line1": "1 66486U 25263B   25335.83335647 -.00006007  00000+0 -36060-4 0  9998",
        "tle_line2": "2 66486  42.9991 189.7393 0001912 270.6367 299.2787 15.75013178  3836"
      },
      "geometry": {
        "type": "Point",
        "coordinates": [
          -3.9221728713997175,
          10.09563108058289
        ]
      }
    },
    {
      "type": "Feature",
      "properties": {
        "norad_id": 66487,
        "name": "STARLINK-34733",
        "group": "last-30-days",
        "lat": 8.813823428321,
        "lon": -2.4916725580467696,
        "alt_km": 343.34227033977095,
        "timestamp": "2025-12-02T06:27:51.801358+00:00",
        "meta_object_name": "STARLINK-34733",
        "meta_object_id": "2025-263C",
        "meta_epoch": "2025-12-01T14:00:01.999872",
        "meta_mean_motion": 15.75048056,
        "meta_eccentricity": 0.00016418,
        "meta_inclination": 42.9993,
        "meta_ra_of_asc_node": 191.2499,
        "meta_arg_of_pericenter": 263.4131,
        "meta_mean_anomaly": 329.1096,
        "meta_ephemeris_type": 0,
        "meta_classification_type": "U",
        "meta_norad_cat_id": 66487,
        "meta_element_set_no": 999,
        "meta_rev_at_epoch": 384,
        "meta_bstar": -0.00013820778,
        "meta_mean_motion_dot": -0.00021661,
        "meta_mean_motion_ddot": 0,
        "tle_line1": "1 66487U 25263C   25335.58335648 -.00021661  00000+0 -13821-3 0  9994",
        "tle_line2": "2 66487  42.9993 191.2499 0001641 263.4131 329.1096 15.75048056  3842"
      },
      "geometry": {
        "type": "Point",
        "coordinates": [
          -2.4916725580467696,
          8.813823428321
        ]
      }
    },
    {
      "type": "Feature",
      "properties": {
        "norad_id": 66488,
        "name": "STARLINK-35515",
        "group": "last-30-days",
        "lat": 7.501180810533364,
        "lon": -1.0394737689884694,
        "alt_km": 343.5475047990594,
        "timestamp": "2025-12-02T06:27:51.801368+00:00",
        "meta_object_name": "STARLINK-35515",
        "meta_object_id": "2025-263D",
        "meta_epoch": "2025-12-01T20:00:01.999008",
        "meta_mean_motion": 15.75079921,
        "meta_eccentricity": 0.0001497,
        "meta_inclination": 42.999,
        "meta_ra_of_asc_node": 189.7301,
        "meta_arg_of_pericenter": 270.5864,
        "meta_mean_anomaly": 303.1141,
        "meta_ephemeris_type": 0,
        "meta_classification_type": "U",
        "meta_norad_cat_id": 66488,
        "meta_element_set_no": 999,
        "meta_rev_at_epoch": 388,
        "meta_bstar": -0.00037884,
        "meta_mean_motion_dot": -0.00058373,
        "meta_mean_motion_ddot": 0,
        "tle_line1": "1 66488U 25263D   25335.83335647 -.00058373  00000+0 -37884-3 0  9997",
        "tle_line2": "2 66488  42.9990 189.7301 0001497 270.5864 303.1141 15.75079921  3887"
      },
      "geometry": {
        "type": "Point",
        "coordinates": [
          -1.0394737689884694,
          7.501180810533364
        ]
      }
    },
    {
      "type": "Feature",
      "properties": {
        "norad_id": 66489,
        "name": "STARLINK-35696",
        "group": "last-30-days",
        "lat": 6.209606056570207,
        "lon": 0.3739314231909033,
        "alt_km": 343.73577875234605,
        "timestamp": "2025-12-02T06:27:51.801378+00:00",
        "meta_object_name": "STARLINK-35696",
        "meta_object_id": "2025-263E",
        "meta_epoch": "2025-12-01T20:00:01.999008",
        "meta_mean_motion": 15.75069463,
        "meta_eccentricity": 0.0001768,
        "meta_inclination": 42.999,
        "meta_ra_of_asc_node": 189.7254,
        "meta_arg_of_pericenter": 271.217,
        "meta_mean_anomaly": 304.4004,
        "meta_ephemeris_type": 0,
        "meta_classification_type": "U",
        "meta_norad_cat_id": 66489,
        "meta_element_set_no": 999,
        "meta_rev_at_epoch": 388,
        "meta_bstar": -0.00026001,
        "meta_mean_motion_dot": -0.00040281,
        "meta_mean_motion_ddot": 0,
        "tle_line1": "1 66489U 25263E   25335.83335647 -.00040281  00000+0 -26001-3 0  9996",
        "tle_line2": "2 66489  42.9990 189.7254 0001768 271.2170 304.4004 15.75069463  3886"
      },
      "geometry": {
        "type": "Point",
        "coordinates": [
          0.3739314231909033,
          6.209606056570207
        ]
      }
    },
    {
      "type": "Feature",
      "properties": {
        "norad_id": 66490,
        "name": "STARLINK-35693",
        "group": "last-30-days",
        "lat": 4.910621442061006,
        "lon": 1.7838069908317804,
        "alt_km": 343.86510965191974,
        "timestamp": "2025-12-02T06:27:51.801389+00:00",
        "meta_object_name": "STARLINK-35693",
        "meta_object_id": "2025-263F",
        "meta_epoch": "2025-12-01T20:00:01.999008",
        "meta_mean_motion": 15.75063446,
        "meta_eccentricity": 0.0001489,
        "meta_inclination": 42.9992,
        "meta_ra_of_asc_node": 189.7201,
        "meta_arg_of_pericenter": 272.1794,
        "meta_mean_anomaly": 305.3569,
        "meta_ephemeris_type": 0,
        "meta_classification_type": "U",
        "meta_norad_cat_id": 66490,
        "meta_element_set_no": 999,
        "meta_rev_at_epoch": 388,
        "meta_bstar": -0.00023218,
        "meta_mean_motion_dot": -0.00036028,
        "meta_mean_motion_ddot": 0,
        "tle_line1": "1 66490U 25263F   25335.83335647 -.00036028  00000+0 -23218-3 0  9999",
        "tle_line2": "2 66490  42.9992 189.7201 0001489 272.1794 305.3569 15.75063446  3885"
      },
      "geometry": {
        "type": "Point",
        "coordinates": [
          1.7838069908317804,
          4.910621442061006
        ]
      }
    }
  ]
}